[{"OBJECT_NAME":"STARLINK-5673","OBJECT_ID":"2023-015P","EPOCH":"2026-03-08T02:06:20.737728","MEAN_MOTION":15.02536752,"ECCENTRICITY":0.00012719,"INCLINATION":43.0046,"RA_OF_ASC_NODE":334.642,"ARG_OF_PERICENTER":261.1698,"MEAN_ANOMALY":98.9,"EPHEMERIS_TYPE":0,"CLASSIFICATION_TYPE":"U","NORAD_CAT_ID":55462,"ELEMENT_SET_NO":999,"REV_AT_EPOCH":17051,"BSTAR":4.8004816e-5,"MEAN_MOTION_DOT":4.45e-6,"MEAN_MOTION_DDOT":0},{"OBJECT_NAME":"FENGYUN 1C DEB","OBJECT_ID":"1999-025AXZ","EPOCH":"2026-03-08T14:14:59.144640","MEAN_MOTION":14.45531732,"ECCENTRICITY":0.02627631,"INCLINATION":98.3534,"RA_OF_ASC_NODE":127.2715,"ARG_OF_PERICENTER":27.4342,"MEAN_ANOMALY":334.0445,"EPHEMERIS_TYPE":0,"CLASSIFICATION_TYPE":"U","NORAD_CAT_ID":30887,"ELEMENT_SET_NO":999,"REV_AT_EPOCH":99368,"BSTAR":0.00075941367,"MEAN_MOTION_DOT":4.058e-5,"MEAN_MOTION_DDOT":0}]
